GLOBALSTAR M069         
1 31573U 07020C   26200.31798443 -.00000065  00000+0  25665-3 0  9995
2 31573  52.0011 161.1821 0001535 218.8316 291.1387 12.23472365882737
GLOBALSTAR M072         
1 31574U 07020D   26200.20241265 -.00000088  00000+0 -51976-4 0  9990
2 31574  51.9950  15.0121 0001649  42.9418 127.9082 11.91658787878790
GLOBALSTAR M066         
1 32265U 07048C   26200.31692957 -.00000038  00000+0  47953-3 0  9991
2 32265  51.9612 325.6785 0005541 110.0250 266.3848 12.30389984864185
GLOBALSTAR M079         
1 37188U 10054A   26199.91173130 -.00000108  00000+0 -25509-4 0  9994
2 37188  52.0054  12.0956 0001129  83.7766  80.3936 12.62266401726552
GLOBALSTAR M074         
1 37189U 10054B   26200.25637730 -.00000107  00000+0 -19249-4 0  9999
2 37189  52.0035  10.3070 0000856  98.7148  72.2570 12.62262067727207
GLOBALSTAR M076         
1 37190U 10054C   26200.20364420 -.00000092  00000+0  65294-4 0  9992
2 37190  52.0050  10.6737 0001095  97.6061  73.5333 12.62262553726915
GLOBALSTAR M077         
1 37191U 10054D   26199.88898156 -.00000101  00000+0 -43080-3 0  9992
2 37191  51.9961  98.8316 0002198 231.8864 208.0459 11.67547245724846
GLOBALSTAR M075         
1 37192U 10054E   26200.05683488 -.00000101  00000+0  18153-4 0  9998
2 37192  51.9955  53.1567 0000781  70.6238  93.6683 12.62267888725961
GLOBALSTAR M073         
1 37193U 10054F   26200.05887909 -.00000095  00000+0  46244-4 0  9997
2 37193  52.0081 327.2763 0001017 101.9627  69.9281 12.62266947727956
GLOBALSTAR M083         
1 37739U 11033A   26200.19801231 -.00000084  00000+0  11195-3 0  9994
2 37739  51.9858 275.0389 0000701 110.3248 275.3725 12.62264346696994
GLOBALSTAR M088         
1 37740U 11033B   26200.10385852 -.00000111  00000+0 -38032-4 0  9995
2 37740  52.0190 181.8282 0000111  44.5486  31.8391 12.62269478692520
GLOBALSTAR M091         
1 37741U 11033C   26200.20979258 -.00000093  00000+0  62743-4 0  9990
2 37741  51.9986 144.4239 0000520  31.8856 106.6630 12.62264247693328
GLOBALSTAR M085         
1 37742U 11033D   26200.20272492 -.00000084  00000+0  11143-3 0  9994
2 37742  52.0128  95.7659 0000860  47.6871 118.7345 12.62264435693834
GLOBALSTAR M081         
1 37743U 11033E   26200.23128834 -.00000089  00000+0  84119-4 0  9997
2 37743  51.9959  98.0785 0000746  60.1551 115.9987 12.62265336693987
GLOBALSTAR M089         
1 37744U 11033F   26200.03047363 -.00000099  00000+0  24624-4 0  9999
2 37744  51.9940  52.8424 0000715  92.5063  71.8065 12.62267620694806
GLOBALSTAR M084         
1 38040U 11080A   26200.25250878 -.00000086  00000+0  99995-4 0  9991
2 38040  52.0014 279.6666 0000739 136.7218 256.7974 12.62263663672819
GLOBALSTAR M080         
1 38041U 11080B   26199.26912443 -.00000082  00000+0  12420-3 0  9996
2 38041  52.0065 284.3895 0000297  76.7380 295.7039 12.62257576672816
GLOBALSTAR M082         
1 38042U 11080C   26200.24847637 -.00000104  00000+0 -52768-6 0  9998
2 38042  52.0054 236.9119 0000184  64.4965  10.4444 12.62264311673644
GLOBALSTAR M092         
1 38043U 11080D   26200.28800508 -.00000084  00000+0  11260-3 0  9994
2 38043  52.0105 327.1892 0000728 108.9810 265.0801 12.62267896672106
GLOBALSTAR M090         
1 38044U 11080E   26200.10767175 -.00000097  00000+0  37299-4 0  9993
2 38044  52.0097 231.3063 0000389  84.6502 308.9923 12.62269626673740
GLOBALSTAR M086         
1 38045U 11080F   26200.12900713 -.00000107  00000+0 -20099-4 0  9996
2 38045  51.9874 231.1181 0001437 117.4055 277.2188 12.62287881673692
GLOBALSTAR M097         
1 39072U 13005A   26200.23241846 -.00000101  00000+0  14442-4 0  9991
2 39072  52.0031 145.7861 0000522  44.1510 315.9399 12.62271305620950
GLOBALSTAR M093         
1 39073U 13005B   26200.20566947 -.00000089  00000+0  79895-4 0  9999
2 39073  52.0096 139.2271 0000748  50.0977 309.9955 12.62266357620905
GLOBALSTAR M094         
1 39074U 13005C   26200.04716006 -.00000096  00000+0  45405-4 0  9993
2 39074  51.9968  53.7951 0001035  68.6970 291.4007 12.62264237622499
GLOBALSTAR M096         
1 39075U 13005D   26199.98150033 -.00000081  00000+0  12914-3 0  9998
2 39075  52.0075 102.8215 0000807  49.9335 310.1602 12.62265811621402
GLOBALSTAR M078         
1 39076U 13005E   26200.11300895 -.00000116  00000+0 -69593-4 0  9996
2 39076  51.9845 186.3872 0000928 349.4687  10.6160 12.62260103620043
GLOBALSTAR M095         
1 39077U 13005F   26200.21886448 -.00000114  00000+0 -58653-4 0  9994
2 39077  52.0053 183.7136 0000544  19.4933 340.5955 12.62264091619914
GLOBALSTAR M087         
1 52888U 22064A   26200.31114291 -.00000088  00000+0  88492-4 0  9998
2 52888  52.0017 324.6537 0000898  90.0833 270.0137 12.62269416195190
